CCSDS_OMM_VERS = 2.0
CREATION_DATE  = 
ORIGINATOR     = 

OBJECT_NAME    = ELECTRON R/B
OBJECT_ID      = 2026-015C
CENTER_NAME    = EARTH
REF_FRAME      = TEME
TIME_SYSTEM    = UTC
MEAN_ELEMENT_THEORY = SGP/SGP4

EPOCH          = 2026-02-18T15:18:32.560704
MEAN_MOTION    = 15.79979851
ECCENTRICITY   = .0260955
INCLINATION    = 88.9636
RA_OF_ASC_NODE = 279.7240
ARG_OF_PERICENTER = 167.7993
MEAN_ANOMALY   = 192.9778

EPHEMERIS_TYPE = 0
CLASSIFICATION_TYPE = U
NORAD_CAT_ID   = 67558
ELEMENT_SET_NO = 999
REV_AT_EPOCH   = 412
BSTAR          = .12815E-2
MEAN_MOTION_DOT = .471637E-1
MEAN_MOTION_DDOT = -.14475E-5

CCSDS_OMM_VERS = 2.0
CREATION_DATE  = 
ORIGINATOR     = 

OBJECT_NAME    = ELECTRON KICK STAGE R/B
OBJECT_ID      = 2026-015D
CENTER_NAME    = EARTH
REF_FRAME      = TEME
TIME_SYSTEM    = UTC
MEAN_ELEMENT_THEORY = SGP/SGP4

EPOCH          = 2026-02-18T15:10:50.739744
MEAN_MOTION    = 14.68579598
ECCENTRICITY   = .05272052
INCLINATION    = 89.0492
RA_OF_ASC_NODE = 280.1634
ARG_OF_PERICENTER = 239.8874
MEAN_ANOMALY   = 114.9097

EPHEMERIS_TYPE = 0
CLASSIFICATION_TYPE = U
NORAD_CAT_ID   = 67559
ELEMENT_SET_NO = 999
REV_AT_EPOCH   = 399
BSTAR          = .74283543E-3
MEAN_MOTION_DOT = .44361E-3
MEAN_MOTION_DDOT = -.169271E-6

CCSDS_OMM_VERS = 2.0
CREATION_DATE  = 
ORIGINATOR     = 

OBJECT_NAME    = STARLINK-36426
OBJECT_ID      = 2026-014AA
CENTER_NAME    = EARTH
REF_FRAME      = TEME
TIME_SYSTEM    = UTC
MEAN_ELEMENT_THEORY = SGP/SGP4

EPOCH          = 2026-02-18T14:42:02.607552
MEAN_MOTION    = 15.75277084
ECCENTRICITY   = .00020657
INCLINATION    = 97.2841
RA_OF_ASC_NODE = 293.6546
ARG_OF_PERICENTER = 131.5129
MEAN_ANOMALY   = 228.6314

EPHEMERIS_TYPE = 0
CLASSIFICATION_TYPE = U
NORAD_CAT_ID   = 67560
ELEMENT_SET_NO = 999
REV_AT_EPOCH   = 556
BSTAR          = .1349764E-2
MEAN_MOTION_DOT = .206933E-2
MEAN_MOTION_DDOT = 0

CCSDS_OMM_VERS = 2.0
CREATION_DATE  = 
ORIGINATOR     = 

OBJECT_NAME    = STARLINK-36621
OBJECT_ID      = 2026-016A
CENTER_NAME    = EARTH
REF_FRAME      = TEME
TIME_SYSTEM    = UTC
MEAN_ELEMENT_THEORY = SGP/SGP4

EPOCH          = 2026-02-18T08:25:06.277440
MEAN_MOTION    = 15.75253168
ECCENTRICITY   = .00011921
INCLINATION    = 97.2833
RA_OF_ASC_NODE = 108.8009
ARG_OF_PERICENTER = 18.0360
MEAN_ANOMALY   = 342.0948

EPHEMERIS_TYPE = 0
CLASSIFICATION_TYPE = U
NORAD_CAT_ID   = 67561
ELEMENT_SET_NO = 999
REV_AT_EPOCH   = 375
BSTAR          = .11067413E-2
MEAN_MOTION_DOT = .168708E-2
MEAN_MOTION_DDOT = 0

CCSDS_OMM_VERS = 2.0
CREATION_DATE  = 
ORIGINATOR     = 

OBJECT_NAME    = STARLINK-36398
OBJECT_ID      = 2026-016B
CENTER_NAME    = EARTH
REF_FRAME      = TEME
TIME_SYSTEM    = UTC
MEAN_ELEMENT_THEORY = SGP/SGP4

EPOCH          = 2026-02-18T14:41:42.052128
MEAN_MOTION    = 15.75228471
ECCENTRICITY   = .00008414
INCLINATION    = 97.2830
RA_OF_ASC_NODE = 109.0554
ARG_OF_PERICENTER = 99.8150
MEAN_ANOMALY   = 260.3210

EPHEMERIS_TYPE = 0
CLASSIFICATION_TYPE = U
NORAD_CAT_ID   = 67562
ELEMENT_SET_NO = 999
REV_AT_EPOCH   = 379
BSTAR          = .12784488E-2
MEAN_MOTION_DOT = .195308E-2
MEAN_MOTION_DDOT = 0

CCSDS_OMM_VERS = 2.0
CREATION_DATE  = 
ORIGINATOR     = 

OBJECT_NAME    = STARLINK-36403
OBJECT_ID      = 2026-016C
CENTER_NAME    = EARTH
REF_FRAME      = TEME
TIME_SYSTEM    = UTC
MEAN_ELEMENT_THEORY = SGP/SGP4

EPOCH          = 2026-02-18T03:08:22.259616
MEAN_MOTION    = 15.80877600
ECCENTRICITY   = .00011565
INCLINATION    = 97.2832
RA_OF_ASC_NODE = 108.6427
ARG_OF_PERICENTER = 76.9117
MEAN_ANOMALY   = 283.2280

EPHEMERIS_TYPE = 0
CLASSIFICATION_TYPE = U
NORAD_CAT_ID   = 67563
ELEMENT_SET_NO = 999
REV_AT_EPOCH   = 372
BSTAR          = .82206146E-3
MEAN_MOTION_DOT = .160706E-2
MEAN_MOTION_DDOT = 0

CCSDS_OMM_VERS = 2.0
CREATION_DATE  = 
ORIGINATOR     = 

OBJECT_NAME    = STARLINK-36593
OBJECT_ID      = 2026-016D
CENTER_NAME    = EARTH
REF_FRAME      = TEME
TIME_SYSTEM    = UTC
MEAN_ELEMENT_THEORY = SGP/SGP4

EPOCH          = 2026-02-18T03:06:36.480096
MEAN_MOTION    = 15.80887540
ECCENTRICITY   = .00016194
INCLINATION    = 97.2829
RA_OF_ASC_NODE = 108.6440
ARG_OF_PERICENTER = 68.2745
MEAN_ANOMALY   = 291.8696

EPHEMERIS_TYPE = 0
CLASSIFICATION_TYPE = U
NORAD_CAT_ID   = 67564
ELEMENT_SET_NO = 999
REV_AT_EPOCH   = 372
BSTAR          = .88604159E-3
MEAN_MOTION_DOT = .173563E-2
MEAN_MOTION_DDOT = 0

CCSDS_OMM_VERS = 2.0
CREATION_DATE  = 
ORIGINATOR     = 

OBJECT_NAME    = STARLINK-35725
OBJECT_ID      = 2026-016E
CENTER_NAME    = EARTH
REF_FRAME      = TEME
TIME_SYSTEM    = UTC
MEAN_ELEMENT_THEORY = SGP/SGP4

EPOCH          = 2026-02-18T03:32:53.191968
MEAN_MOTION    = 15.75241683
ECCENTRICITY   = .00015705
INCLINATION    = 97.2835
RA_OF_ASC_NODE = 108.6175
ARG_OF_PERICENTER = 84.6192
MEAN_ANOMALY   = 275.5253

EPHEMERIS_TYPE = 0
CLASSIFICATION_TYPE = U
NORAD_CAT_ID   = 67565
ELEMENT_SET_NO = 999
REV_AT_EPOCH   = 372
BSTAR          = .97757022E-3
MEAN_MOTION_DOT = .148578E-2
MEAN_MOTION_DDOT = 0

CCSDS_OMM_VERS = 2.0
CREATION_DATE  = 
ORIGINATOR     = 

OBJECT_NAME    = STARLINK-36394
OBJECT_ID      = 2026-016F
CENTER_NAME    = EARTH
REF_FRAME      = TEME
TIME_SYSTEM    = UTC
MEAN_ELEMENT_THEORY = SGP/SGP4

EPOCH          = 2026-02-18T08:09:51.726528
MEAN_MOTION    = 15.75267807
ECCENTRICITY   = .0001087
INCLINATION    = 97.2843
RA_OF_ASC_NODE = 108.8121
ARG_OF_PERICENTER = 48.3223
MEAN_ANOMALY   = 311.8135

EPHEMERIS_TYPE = 0
CLASSIFICATION_TYPE = U
NORAD_CAT_ID   = 67566
ELEMENT_SET_NO = 999
REV_AT_EPOCH   = 375
BSTAR          = .15879235E-2
MEAN_MOTION_DOT = .244446E-2
MEAN_MOTION_DDOT = 0

CCSDS_OMM_VERS = 2.0
CREATION_DATE  = 
ORIGINATOR     = 

OBJECT_NAME    = STARLINK-36352
OBJECT_ID      = 2026-016G
CENTER_NAME    = EARTH
REF_FRAME      = TEME
TIME_SYSTEM    = UTC
MEAN_ELEMENT_THEORY = SGP/SGP4

EPOCH          = 2026-02-18T03:01:20.044416
MEAN_MOTION    = 15.80902355
ECCENTRICITY   = .0001054
INCLINATION    = 97.2833
RA_OF_ASC_NODE = 108.6453
ARG_OF_PERICENTER = 101.3592
MEAN_ANOMALY   = 258.7795

EPHEMERIS_TYPE = 0
CLASSIFICATION_TYPE = U
NORAD_CAT_ID   = 67567
ELEMENT_SET_NO = 999
REV_AT_EPOCH   = 372
BSTAR          = .10848562E-2
MEAN_MOTION_DOT = .213668E-2
MEAN_MOTION_DDOT = 0

CCSDS_OMM_VERS = 2.0
CREATION_DATE  = 
ORIGINATOR     = 

OBJECT_NAME    = STARLINK-36435
OBJECT_ID      = 2026-016H
CENTER_NAME    = EARTH
REF_FRAME      = TEME
TIME_SYSTEM    = UTC
MEAN_ELEMENT_THEORY = SGP/SGP4

EPOCH          = 2026-02-18T02:58:05.106144
MEAN_MOTION    = 15.80964595
ECCENTRICITY   = .0000749
INCLINATION    = 97.2832
RA_OF_ASC_NODE = 108.6480
ARG_OF_PERICENTER = 140.9960
MEAN_ANOMALY   = 219.1363

EPHEMERIS_TYPE = 0
CLASSIFICATION_TYPE = U
NORAD_CAT_ID   = 67568
ELEMENT_SET_NO = 999
REV_AT_EPOCH   = 372
BSTAR          = .1509819E-2
MEAN_MOTION_DOT = .301319E-2
MEAN_MOTION_DDOT = 0

CCSDS_OMM_VERS = 2.0
CREATION_DATE  = 
ORIGINATOR     = 

OBJECT_NAME    = STARLINK-36575
OBJECT_ID      = 2026-016J
CENTER_NAME    = EARTH
REF_FRAME      = TEME
TIME_SYSTEM    = UTC
MEAN_ELEMENT_THEORY = SGP/SGP4

EPOCH          = 2026-02-18T13:34:25.242816
MEAN_MOTION    = 15.80868848
ECCENTRICITY   = .00012923
INCLINATION    = 97.2826
RA_OF_ASC_NODE = 109.1224
ARG_OF_PERICENTER = 176.3521
MEAN_ANOMALY   = 183.7757

EPHEMERIS_TYPE = 0
CLASSIFICATION_TYPE = U
NORAD_CAT_ID   = 67569
ELEMENT_SET_NO = 999
REV_AT_EPOCH   = 379
BSTAR          = .80075589E-3
MEAN_MOTION_DOT = .156397E-2
MEAN_MOTION_DDOT = 0

