ELECTRON R/B            
1 67558U 26015C   26049.63787686  .04716370 -14475-5  12815-2 0  9991
2 67558  88.9636 279.7240 0260955 167.7993 192.9778 15.79979851  4124
ELECTRON KICK STAGE R/B 
1 67559U 26015D   26049.63253171  .00044361 -16927-6  74284-3 0  9993
2 67559  89.0492 280.1634 0527205 239.8874 114.9097 14.68579598  3996
STARLINK-36426          
1 67560U 26014AA  26049.61253018  .00206933  00000+0  13498-2 0  9993
2 67560  97.2841 293.6546 0002065 131.5129 228.6314 15.75277084  5565
STARLINK-36621          
1 67561U 26016A   26049.35076710  .00168708  00000+0  11067-2 0  9996
2 67561  97.2833 108.8009 0001192  18.0360 342.0948 15.75253168  3754
STARLINK-36398          
1 67562U 26016B   26049.61229227  .00195308  00000+0  12784-2 0  9992
2 67562  97.2830 109.0554 0000841  99.8150 260.3210 15.75228471  3791
STARLINK-36403          
1 67563U 26016C   26049.13081319  .00160706  00000+0  82206-3 0  9999
2 67563  97.2832 108.6427 0001156  76.9117 283.2280 15.80877600  3721
STARLINK-36593          
1 67564U 26016D   26049.12958889  .00173563  00000+0  88604-3 0  9997
2 67564  97.2829 108.6440 0001619  68.2745 291.8696 15.80887540  3728
STARLINK-35725          
1 67565U 26016E   26049.14783787  .00148578  00000+0  97757-3 0  9990
2 67565  97.2835 108.6175 0001570  84.6192 275.5253 15.75241683  3729
STARLINK-36394          
1 67566U 26016F   26049.34018202  .00244446  00000+0  15879-2 0  9991
2 67566  97.2843 108.8121 0001087  48.3223 311.8135 15.75267807  3759
STARLINK-36352          
1 67567U 26016G   26049.12592644  .00213668  00000+0  10849-2 0  9999
2 67567  97.2833 108.6453 0001054 101.3592 258.7795 15.80902355  3726
STARLINK-36435          
1 67568U 26016H   26049.12367021  .00301319  00000+0  15098-2 0  9991
2 67568  97.2832 108.6480 0000749 140.9960 219.1363 15.80964595  3720
STARLINK-36575          
1 67569U 26016J   26049.56556994  .00156397  00000+0  80076-3 0  9992
2 67569  97.2826 109.1224 0001292 176.3521 183.7757 15.80868848  3790
